ONEWEB-0564             
1 55801U 23029F   25195.63814423  .00000062  00000+0  12116-3 0  9999
2 55801  87.9276 341.7191 0001577 105.8187 254.3120 13.20771084116598
ONEWEB-0638             
1 55802U 23029G   25195.50622387  .00000204  00000+0  51570-3 0  9997
2 55802  87.9049 356.9535 0001911 110.0311 250.1024 13.14504055115036
ONEWEB-0639             
1 55803U 23029H   25195.57135997  .00000037  00000+0  60797-4 0  9997
2 55803  87.9219  12.0985 0002996  86.7383 273.4093 13.19725733114370
ONEWEB-0640             
1 55804U 23029J   25195.43962319  .00000242  00000+0  61725-3 0  9998
2 55804  87.9050 356.9542 0002340 108.8918 251.2466 13.14503111115048
ONEWEB-0641             
1 55805U 23029K   25195.49080809  .00000018  00000+0  13239-4 0  9999
2 55805  87.9219  12.0860 0002048  88.6130 271.5238 13.19726332114379
ONEWEB-0642             
1 55806U 23029L   25195.48607724  .00000038  00000+0  63110-4 0  9995
2 55806  87.9218  12.1245 0002694  81.2480 278.8958 13.19724784114368
ONEWEB-0643             
1 55807U 23029M   25195.48561137 -.00000138  00000+0 -40680-3 0  9992
2 55807  87.9050 356.9273 0002331  77.6745 282.4645 13.14503346115026
ONEWEB-0644             
1 55808U 23029N   25195.55715247 -.00000067  00000+0 -19903-3 0  9999
2 55808  87.9225  12.1154 0002318  84.2074 275.9323 13.19725356114373
